H1 CPF  1  MCC 2022  8 17 16  7291 larets
H2  0304206 5557    27944 2022 08 16 23 45 00 2022 08 21 23 57 00   180 1 1  0 0 0
H9
10 0 59811 39420.000000 0     -3113903.389     -2191233.365      5929043.969
10 0 59811 39600.000000 0     -2383517.869     -1199242.392      6519846.975
10 0 59811 39780.000000 0     -1539793.156      -184142.536      6870954.992
10 0 59811 39960.000000 0      -613449.256       814443.013      6969520.177
10 0 59811 40140.000000 0       360775.344      1758366.130      6811957.692
10 0 59811 40320.000000 0      1345440.934      2612424.775      6404069.432
10 0 59811 40500.000000 0      2301858.412      3345690.450      5760834.597
10 0 59811 40680.000000 0      3191623.403      3932648.793      4905878.406
10 0 59811 40860.000000 0      3978181.516      4354115.320      3870622.159
10 0 59811 41040.000000 0      4628355.838      4597886.063      2693137.955
10 0 59811 41220.000000 0      5113777.856      4659098.438      1416736.007
10 0 59811 41400.000000 0      5412138.512      4540275.644        88335.459
10 0 59811 41580.000000 0      5508201.023      4251053.103     -1243313.451
10 0 59811 41760.000000 0      5394513.480      3807600.057     -2529473.179
10 0 59811 41940.000000 0      5071794.504      3231773.365     -3723239.820
10 0 59811 42120.000000 0      4548977.841      2550056.227     -4781264.499
10 0 59811 42300.000000 0      3842921.251      1792338.843     -5665306.573
10 0 59811 42480.000000 0      2977805.502       990605.317     -6343558.731
10 0 59811 42660.000000 0      1984260.279       177594.806     -6791713.207
10 0 59811 42840.000000 0       898261.677      -614508.907     -6993749.802
10 0 59811 43020.000000 0      -240157.105     -1355315.978     -6942446.319
10 0 59811 43200.000000 0     -1388345.666     -2017358.615     -6639603.805
10 0 59811 43380.000000 0     -2502584.668     -2577079.759     -6095994.649
10 0 59811 43560.000000 0     -3539704.453     -3015658.717     -5331028.680
10 0 59811 43740.000000 0     -4458732.004     -3319651.462     -4372140.977
10 0 59811 43920.000000 0     -5222516.877     -3481422.871     -3253893.078
10 0 59811 44100.000000 0     -5799267.684     -3499346.498     -2016799.182
10 0 59811 44280.000000 0     -6163929.704     -3377757.572      -705900.639
10 0 59811 44460.000000 0     -6299328.721     -3126652.479       630868.126
10 0 59811 44640.000000 0     -6197015.468     -2761142.486      1944462.176
10 0 59811 44820.000000 0     -5857750.737     -2300682.563      3186582.958
10 0 59811 45000.000000 0     -5291598.825     -1768114.097      4311514.792
10 0 59811 45180.000000 0     -4517623.302     -1188572.250      5277859.770
10 0 59811 45360.000000 0     -3563203.613      -588317.870      6050085.161
10 0 59811 45540.000000 0     -2463017.201         6444.493      6599835.096
10 0 59811 45720.000000 0     -1257724.680       570709.727      6906958.736
10 0 59811 45900.000000 0         7575.859      1081720.601      6960223.323
10 0 59811 46080.000000 0      1285061.490      1519886.965      6757705.367
10 0 59811 46260.000000 0      2526008.979      1869543.319      6306853.745
10 0 59811 46440.000000 0      3682670.497      2119516.198      5624224.147
10 0 59811 46620.000000 0      4710138.676      2263483.353      4734890.065
10 0 59811 46800.000000 0      5568128.540      2300114.897      3671541.183
10 0 59811 46980.000000 0      6222612.254      2232989.870      2473287.303
10 0 59811 47160.000000 0      6647217.490      2070287.536      1184200.295
10 0 59811 47340.000000 0      6824327.223      1824270.848      -148344.601
10 0 59811 47520.000000 0      6745816.442      1510587.308     -1475464.718
10 0 59811 47700.000000 0      6413388.342      1147424.987     -2748614.421
10 0 59811 47880.000000 0      5838504.500       754567.969     -3921395.532
10 0 59811 48060.000000 0      5041912.140       352406.877     -4951256.718
10 0 59811 48240.000000 0      4052807.155       -39044.110     -5801007.007
10 0 59811 48420.000000 0      2907692.493      -401075.073     -6440094.906
10 0 59811 48600.000000 0      1648988.126      -717114.028     -6845628.329
10 0 59811 48780.000000 0       323454.083      -973436.315     -7003113.832
10 0 59811 48960.000000 0     -1019517.805     -1159725.780     -6906916.459
10 0 59811 49140.000000 0     -2329693.463     -1269471.268     -6560437.254
10 0 59811 49320.000000 0     -3557820.396     -1300189.774     -5976009.380
10 0 59811 49500.000000 0     -4657435.125     -1253470.106     -5174514.986
10 0 59811 49680.000000 0     -5586614.131     -1134836.311     -4184722.783
10 0 59811 49860.000000 0     -6309603.867      -953431.743     -3042340.549
10 0 59811 50040.000000 0     -6798264.199      -721532.255     -1788795.816
10 0 59811 50220.000000 0     -7033251.572      -453905.108      -469769.785
10 0 59811 50400.000000 0     -7004873.243      -167038.608       866471.884
10 0 59811 50580.000000 0     -6713550.022       121721.395      2170881.624
10 0 59811 50760.000000 0     -6169860.290       395078.836      3395486.266
10 0 59811 50940.000000 0     -5394151.189       636693.175      4495213.433
10 0 59811 51120.000000 0     -4415735.688       832033.567      5429597.348
10 0 59811 51300.000000 0     -3271725.609       969135.700      6164288.684
10 0 59811 51480.000000 0     -2005563.385      1039224.369      6672317.876
10 0 59811 51660.000000 0      -665315.882      1037174.075      6935070.850
10 0 59811 51840.000000 0       698191.939       961788.674      6942944.177
10 0 59811 52020.000000 0      2033326.124       815888.367      6695676.656
10 0 59811 52200.000000 0      3289614.931       606202.759      6202355.462
10 0 59811 52380.000000 0      4419679.372       343072.527      5481095.146
10 0 59811 52560.000000 0      5381054.784        39969.703      4558391.111
10 0 59811 52740.000000 0      6137834.491      -287146.235      3468163.624
10 0 59811 52920.000000 0      6662070.333      -620605.619      2250512.291
10 0 59811 53100.000000 0      6934856.936      -941905.466       950218.041
10 0 59811 53280.000000 0      6947044.881     -1232643.633      -384943.613
10 0 59811 53460.000000 0      6699549.247     -1475460.154     -1706012.699
10 0 59811 53640.000000 0      6203229.103     -1654935.383     -2964692.742
10 0 59811 53820.000000 0      5478355.221     -1758397.540     -4115147.590
10 0 59811 54000.000000 0      4553706.405     -1776599.168     -5115668.704
10 0 59811 54180.000000 0      3465352.650     -1704232.676     -5930151.707
10 0 59811 54360.000000 0      2255190.184     -1540267.029     -6529332.886
10 0 59811 54540.000000 0       969305.866     -1288092.119     -6891759.023
10 0 59811 54720.000000 0      -343767.092      -955471.292     -7004479.659
10 0 59811 54900.000000 0     -1634841.111      -554307.412     -6863455.405
10 0 59811 55080.000000 0     -2855863.300      -100227.849     -6473685.970
10 0 59811 55260.000000 0     -3961653.150       388001.212     -5849055.034
10 0 59811 55440.000000 0     -4911545.403       889214.727     -5011898.922
10 0 59811 55620.000000 0     -5670895.638      1380723.266     -3992292.734
10 0 59811 55800.000000 0     -6212393.546      1839298.117     -2827055.019
10 0 59811 55980.000000 0     -6517121.391      2242225.762     -1558481.111
10 0 59811 56160.000000 0     -6575303.163      2568384.314      -232838.089
10 0 59811 56340.000000 0     -6386693.934      2799288.544      1101333.451
10 0 59811 56520.000000 0     -5960572.130      2920046.157      2395039.561
10 0 59811 56700.000000 0     -5315327.345      2920172.798      3600690.750
10 0 59811 56880.000000 0     -4477663.228      2794216.521      4673911.606
10 0 59811 57060.000000 0     -3481456.288      2542157.541      5575216.171
10 0 59811 57240.000000 0     -2366337.513      2169567.695      6271479.260
10 0 59811 57420.000000 0     -1176062.464      1687521.670      6737153.001
10 0 59811 57600.000000 0        43251.496      1112262.766      6955182.080
10 0 59811 57780.000000 0      1244937.617       464640.784      6917601.272
10 0 59811 57960.000000 0      2383581.001      -230655.473      6625811.566
10 0 59811 58140.000000 0      3416749.169      -946047.113      6090530.110
10 0 59811 58320.000000 0      4306597.103     -1652165.182      5331412.227
10 0 59811 58500.000000 0      5021287.440     -2319062.622      4376347.846
10 0 59811 58680.000000 0      5536171.991     -2917490.783      3260452.253
10 0 59811 58860.000000 0      5834686.751     -3420187.247      2024771.236
10 0 59811 59040.000000 0      5908908.291     -3803111.618       714744.958
10 0 59811 59220.000000 0      5759747.802     -4046568.398      -621506.487
10 0 59811 59400.000000 0      5396771.182     -4136155.356     -1935005.063
10 0 59811 59580.000000 0      4837654.775     -4063486.588     -3177760.079
10 0 59811 59760.000000 0      4107312.018     -3826657.456     -4304548.007
10 0 59811 59940.000000 0      3236745.485     -3430433.955     -5274552.051
10 0 59811 60120.000000 0      2261691.580     -2886164.307     -6052797.869
10 0 59811 60300.000000 0      1221133.001     -2211430.379     -6611341.708
10 0 59811 60480.000000 0       155743.674     -1429459.382     -6930196.252
10 0 59811 60660.000000 0      -893677.728      -568316.141     -6997971.986
10 0 59811 60840.000000 0     -1887727.385       340087.555     -6812233.052
10 0 59811 61020.000000 0     -2789831.355      1261140.393     -6379573.838
10 0 59811 61200.000000 0     -3567556.149      2158807.151     -5715416.266
10 0 59811 61380.000000 0     -4193765.344      2997001.158     -4843530.736
10 0 59811 61560.000000 0     -4647589.800      3741016.378     -3795270.208
10 0 59811 61740.000000 0     -4915164.972      4358964.824     -2608521.157
10 0 59811 61920.000000 0     -4990102.525      4823160.244     -1326393.983
10 0 59811 62100.000000 0     -4873668.356      5111381.147         4317.624
10 0 59811 62280.000000 0     -4574644.628      5207945.778      1334859.760
99
